PROGRESS-MS 32          
1 65586U 25204A   25326.28671477  .00015903  00000+0  29634-3 0  9997
2 65586  51.6321 243.7129 0003927 154.7163 205.4019 15.48986583   273
CYGNUS NG-23            
1 65616U 25208A   25326.28671477  .00015903  00000+0  29634-3 0  9995
2 65616  51.6321 243.7129 0003927 154.7163 205.4019 15.48986583   222
DRAGONFLY               
1 65729U 98067XH  25326.15547269  .00138289  00000+0  13514-2 0  9992
2 65729  51.6280 240.5876 0005971 164.4635 195.6544 15.65189622  9936
1998-067XJ              
1 65730U 98067XJ  25326.13700102  .00825946  00000+0  28191-2 0  9999
2 65730  51.6212 237.4278 0012340 164.9878 195.1495 15.87104201  9974
1998-067XK              
1 65731U 98067XK  25326.15247769  .00089396  00000+0  10171-2 0  9997
2 65731  51.6305 241.3231 0006042 139.1301 221.0147 15.61516254  9923
RSP-03                  
1 65732U 98067XL  25325.99512304  .00095050  00000+0  10108-2 0  9993
2 65732  51.6289 241.7695 0006844 140.8294 219.3197 15.63220415  9910
GHS-01                  
1 65733U 98067XM  25326.13378298  .00162997  00000+0  14989-2 0  9999
2 65733  51.6298 240.4465 0006509 162.1598 197.9628 15.66611774  9942
YOTSUBA-KULOVER         
1 65941U 98067XN  25326.18419547  .00070927  00000+0  98653-3 0  9990
2 65941  51.6312 243.0309 0002452 112.9443 247.1807 15.56317116  6655
BOTAN                   
1 65942U 98067XP  25326.16005862  .00099025  00000+0  12728-2 0  9998
2 65942  51.6306 242.8705 0004684 117.1919 242.9551 15.58277645  6653
E-KAGAKU-1              
1 65943U 98067XQ  25325.99122092  .00070597  00000+0  98371-3 0  9996
2 65943  51.6316 243.9939 0004040  98.3978 261.7471 15.56265819  6622
HRC MONOBLOCK CAMERA    
1 66052U 98067XR  25326.38387848  .00039380  00000+0  63784-3 0  9999
2 66052  51.6311 242.8606 0004691 103.3773 256.7740 15.52387682  5676
HTV-X1                  
1 66174U 25241A   25326.28671477  .00015903  00000+0  29634-3 0  9992
2 66174  51.6321 243.7129 0003927 154.7163 205.4019 15.48986583  1458
